COSMOS 2361             
<<<<<<< .mine
1 25590U 98076A   09144.91467736  .00000068  00000-0  57281-4 0   466
2 25590  82.9304 132.2694 0032114 145.9330 214.3903 13.72703993521837
=======
1 25590U 98076A   09122.17293752  .00000030  00000-0  16792-4 0   242
2 25590  82.9325 149.0708 0030466 209.5378 150.4046 13.72702126518717
>>>>>>> .r148
COSMOS 2378             
<<<<<<< .mine
1 26818U 01023A   09145.12324506  .00000019  00000-0  38367-5 0   367
2 26818  82.9258 159.0509 0034413 113.4970 246.9808 13.73734326399164
=======
1 26818U 01023A   09121.67021917  .00000055  00000-0  42291-4 0   170
2 26818  82.9290 176.4177 0032796 177.5555 182.5768 13.73734080395945
>>>>>>> .r148
COSMOS 2389             
<<<<<<< .mine
1 27436U 02026A   09145.04456985  .00000038  00000-0  24378-4 0  7652
2 27436  82.9478  99.7454 0047011   7.8976 352.2906 13.74733090350798
=======
1 27436U 02026A   09122.04541342  .00000007  00000-0 -87041-5 0  7451
2 27436  82.9463 116.7578 0048172  70.4625 290.1719 13.74732054347635
>>>>>>> .r148
COSMOS 2398             
<<<<<<< .mine
1 27818U 03023A   09144.67125188  .00000024  00000-0  97635-5 0  6246
2 27818  82.9486  46.1679 0031395 342.5206  17.4874 13.71954521299022
=======
1 27818U 03023A   09121.99018715  .00000016  00000-0  31345-6 0  6050
2 27818  82.9467  62.8661 0032725  44.2523 316.1259 13.71953685295913
>>>>>>> .r148
COSMOS 2407             
<<<<<<< .mine
1 28380U 04028A   09144.66080302  .00000010  00000-0 -52243-5 0  4424
2 28380  82.9602   8.2418 0040501  38.4959 321.9077 13.75842176242956
=======
1 28380U 04028A   09122.26190969  .00000038  00000-0  22899-4 0  4238
2 28380  82.9614  24.8131 0040830  98.7913 261.7870 13.75841733239876
>>>>>>> .r148
COSMOS 2414             
<<<<<<< .mine
1 28521U 05002A   09144.73081523  .00000009  00000-0 -58995-5 0  3548
2 28521  82.9480  74.8452 0042042  91.8459 268.7523 13.87345821219848
=======
1 28521U 05002A   09122.44529997  .00000062  00000-0  38885-4 0  3356
2 28521  82.9455  91.6848 0041054 153.4514 206.8759 13.87345104216750
>>>>>>> .r148
COSMOS 2429             
<<<<<<< .mine
1 32052U 07038A   09144.96997923 -.00000006  00000-0 -22572-4 0  5404
2 32052  82.9765 117.0584 0038582 355.3920   4.6873 13.74692381 85375
=======
1 32052U 07038A   09122.11570228  .00000004  00000-0 -12540-4 0  5188
2 32052  82.9782 133.8917 0040008  57.9834 302.5198 13.74691671 82238
>>>>>>> .r148
